H1 CPF  1  DLR 2021 02 05 10  5362 technosat            
H2  1704205 6203    42829 2021 02 05 00 00 00 2021 02 12 00 00 00    60 1 1  0 0 0
H9
10 0 59253  79200.000000  0       4814939.936       -442924.614       5015146.909
10 0 59253  79260.000000  0       5113816.221       -578592.236       4695230.578
10 0 59253  79320.000000  0       5389942.572       -714336.067       4355373.172
10 0 59253  79380.000000  0       5642147.553       -849378.186       3997010.174
10 0 59253  79440.000000  0       5869367.132       -982933.462       3621657.364
10 0 59253  79500.000000  0       6070649.471      -1114213.892       3230904.427
10 0 59253  79560.000000  0       6245159.345      -1242433.031       2826408.254
10 0 59253  79620.000000  0       6392181.968      -1366810.407       2409885.787
10 0 59253  79680.000000  0       6511126.238      -1486575.973       1983106.648
10 0 59253  79740.000000  0       6601527.406      -1600974.560       1547885.448
10 0 59253  79800.000000  0       6663049.149      -1709270.296       1106073.895
10 0 59253  79860.000000  0       6695485.067      -1810751.008        659552.666
10 0 59253  79920.000000  0       6698759.491      -1904732.518        210223.016
10 0 59253  79980.000000  0       6672927.534      -1990562.702       -240001.679
10 0 59253  80040.000000  0       6618174.567      -2067625.435       -689204.339
10 0 59253  80100.000000  0       6534815.102      -2135344.418      -1135472.689
10 0 59253  80160.000000  0       6423290.956      -2193186.780      -1576907.770
10 0 59253  80220.000000  0       6284168.781      -2240666.436      -2011632.329
10 0 59253  80280.000000  0       6118136.976      -2277347.183      -2437799.065
10 0 59253  80340.000000  0       5926002.041      -2302845.547      -2853598.700
10 0 59253  80400.000000  0       5708684.349      -2316833.343      -3257267.827
10 0 59253  80460.000000  0       5467213.449      -2319039.942      -3647096.488
10 0 59253  80520.000000  0       5202722.878      -2309254.243      -4021435.510
10 0 59253  80580.000000  0       4916444.489      -2287326.324      -4378703.515
10 0 59253  80640.000000  0       4609702.353      -2253168.785      -4717393.598
10 0 59253  80700.000000  0       4283906.234      -2206757.750      -5036079.592
10 0 59253  80760.000000  0       3940544.727      -2148133.535      -5333421.896
10 0 59253  80820.000000  0       3581178.134      -2077400.982      -5608172.840
10 0 59253  80880.000000  0       3207431.140      -1994729.474      -5859181.637
10 0 59253  80940.000000  0       2820985.305      -1900352.594      -6085398.913
10 0 59253  81000.000000  0       2423571.397      -1794567.519      -6285880.874
10 0 59253  81060.000000  0       2016961.437      -1677734.044      -6459793.015
10 0 59253  81120.000000  0       1602960.657      -1550273.278      -6606413.240
10 0 59253  81180.000000  0       1183399.446      -1412666.068      -6725134.479
10 0 59253  81240.000000  0        760125.324      -1265451.173      -6815466.910
10 0 59253  81300.000000  0        334994.813      -1109223.108      -6877039.766
10 0 59253  81360.000000  0        -90134.629       -944629.691      -6909602.552
10 0 59253  81420.000000  0       -513412.538       -772369.385      -6913025.880
10 0 59253  81480.000000  0       -933003.392       -593188.360      -6887301.930
10 0 59253  81540.000000  0      -1347094.494       -407877.256      -6832544.338
10 0 59253  81600.000000  0      -1753903.654       -217267.717      -6748987.604
10 0 59253  81660.000000  0      -2151686.709        -22228.728      -6636986.077
10 0 59253  81720.000000  0      -2538744.837        176337.252      -6497012.493
10 0 59253  81780.000000  0      -2913431.662        377498.367      -6329656.110
10 0 59253  81840.000000  0      -3274160.162        580297.654      -6135620.442
10 0 59253  81900.000000  0      -3619409.400        783757.482      -5915720.532
10 0 59253  81960.000000  0      -3947730.987        986884.145      -5670879.701
10 0 59253  82020.000000  0      -4257755.146       1188672.558      -5402125.893
10 0 59253  82080.000000  0      -4548196.519       1388111.136      -5110587.706
10 0 59253  82140.000000  0      -4817859.699       1584186.828      -4797489.902
10 0 59253  82200.000000  0      -5065644.308       1775890.182      -4464148.414
10 0 59253  82260.000000  0      -5290549.615       1962220.417      -4111964.993
10 0 59253  82320.000000  0      -5491678.765       2142190.511      -3742421.526
10 0 59253  82380.000000  0      -5668242.582       2314832.320      -3357073.977
10 0 59253  82440.000000  0      -5819562.907       2479201.657      -2957545.960
10 0 59253  82500.000000  0      -5945075.425       2634383.313      -2545521.970
10 0 59253  82560.000000  0      -6044331.976       2779495.998      -2122740.322
10 0 59253  82620.000000  0      -6117002.342       2913697.179      -1690985.812
10 0 59253  82680.000000  0      -6162875.471       3036187.764      -1252082.114
10 0 59253  82740.000000  0      -6181860.118       3146216.617       -807884.007
10 0 59253  82800.000000  0      -6173984.986       3243084.875       -360269.412
10 0 59253  82860.000000  0      -6139398.224       3326149.979         88868.747
10 0 59253  82920.000000  0      -6078366.379       3394829.479        537630.731
10 0 59253  82980.000000  0      -5991272.676       3448604.556        984118.216
10 0 59253  83040.000000  0      -5878614.833       3487023.257       1426442.443
10 0 59253  83100.000000  0      -5741002.337       3509703.390       1862732.421
10 0 59253  83160.000000  0      -5579153.111       3516335.072       2291142.960
10 0 59253  83220.000000  0      -5393889.792       3506682.938       2709862.551
10 0 59253  83280.000000  0      -5186135.504       3480587.984       3117121.177
10 0 59253  83340.000000  0      -4956909.139       3437969.020       3511197.868
10 0 59253  83400.000000  0      -4707320.239       3378823.732       3890428.032
10 0 59253  83460.000000  0      -4438563.438       3303229.341       4253210.466
10 0 59253  83520.000000  0      -4151912.603       3211342.892       4598013.989
10 0 59253  83580.000000  0      -3848714.738       3103401.171       4923383.844
10 0 59253  83640.000000  0      -3530383.533       2979720.248       5227947.771
10 0 59253  83700.000000  0      -3198392.606       2840694.675       5510421.683
10 0 59253  83760.000000  0      -2854268.551       2686796.215       5769614.909
10 0 59253  83820.000000  0      -2499583.840       2518572.241       6004435.023
10 0 59253  83880.000000  0      -2135949.590       2336643.777       6213892.288
10 0 59253  83940.000000  0      -1765008.142       2141703.167       6397103.644
10 0 59253  84000.000000  0      -1388425.606       1934511.419       6553296.145
10 0 59253  84060.000000  0      -1007884.473       1715895.256       6681810.011
10 0 59253  84120.000000  0       -625076.200       1486743.801       6782101.298
10 0 59253  84180.000000  0       -241693.759       1248004.990       6853744.101
10 0 59253  84240.000000  0        140575.783       1000681.698       6896432.299
10 0 59253  84300.000000  0        520058.610        745827.582       6909980.815
10 0 59253  84360.000000  0        895101.400        484542.677       6894326.428
10 0 59253  84420.000000  0       1264078.448        217968.728       6849528.139
10 0 59253  84480.000000  0       1625398.666        -52715.704       6775767.075
10 0 59253  84540.000000  0       1977512.419       -326300.407       6673345.938
10 0 59253  84600.000000  0       2318918.153       -601548.880       6542687.939
10 0 59253  84660.000000  0       2648168.843       -877203.832       6384335.283
10 0 59253  84720.000000  0       2963878.226      -1151992.846       6198947.197
10 0 59253  84780.000000  0       3264726.779      -1424634.257       5987297.474
10 0 59253  84840.000000  0       3549467.406      -1693843.133       5750271.464
10 0 59253  84900.000000  0       3816930.759      -1958337.312       5488862.600
10 0 59253  84960.000000  0       4066030.223      -2216843.501       5204168.508
10 0 59253  85020.000000  0       4295766.577      -2468103.450       4897386.688
10 0 59253  85080.000000  0       4505232.277      -2710880.171       4569809.730
10 0 59253  85140.000000  0       4693615.346      -2943964.137       4222820.043
10 0 59253  85200.000000  0       4860202.811      -3166179.415       3857884.159
10 0 59253  85260.000000  0       5004383.721      -3376389.712       3476546.593
10 0 59253  85320.000000  0       5125651.649      -3573504.257       3080423.286
10 0 59253  85380.000000  0       5223606.658      -3756483.548       2671194.692
10 0 59253  85440.000000  0       5297956.736      -3924344.879       2250598.569
10 0 59253  85500.000000  0       5348518.732      -4076167.688       1820422.499
10 0 59253  85560.000000  0       5375218.775      -4211098.641       1382496.086
10 0 59253  85620.000000  0       5378092.138      -4328356.343        938682.916
10 0 59253  85680.000000  0       5357282.564      -4427235.761        490872.408
10 0 59253  85740.000000  0       5313041.071      -4507112.338         40971.458
10 0 59253  85800.000000  0       5245724.165      -4567445.664       -409104.039
10 0 59253  85860.000000  0       5155791.559      -4607782.687       -857437.691
10 0 59253  85920.000000  0       5043803.370      -4627760.552      -1302121.095
10 0 59253  85980.000000  0       4910416.789      -4627108.965      -1741262.303
10 0 59253  86040.000000  0       4756382.320      -4605652.057      -2172994.165
10 0 59253  86100.000000  0       4582539.539      -4563309.786      -2595482.531
10 0 59253  86160.000000  0       4389812.455      -4500098.892      -3006934.245
10 0 59253  86220.000000  0       4179204.492      -4416133.341      -3405604.971
10 0 59253  86280.000000  0       3951793.096      -4311624.236      -3789806.693
10 0 59253  86340.000000  0       3708724.071      -4186879.281      -4157914.912
99
